FENGYUN 1C DEB          
1 30210U 99025VT  17345.90208681  .00000517  00000-0  35705-3 0  9991
2 30210  99.1519 301.2933 0059460 296.4717 130.9950 14.03039507557391
